[{"OBJECT_NAME":"STARLINK-3518","OBJECT_ID":"2022-016U","EPOCH":"2026-03-09T22:16:30.904608","MEAN_MOTION":15.08831596,"ECCENTRICITY":0.00020824,"INCLINATION":53.2202,"RA_OF_ASC_NODE":318.0543,"ARG_OF_PERICENTER":95.3717,"MEAN_ANOMALY":264.7513,"EPHEMERIS_TYPE":0,"CLASSIFICATION_TYPE":"U","NORAD_CAT_ID":51732,"ELEMENT_SET_NO":999,"REV_AT_EPOCH":22474,"BSTAR":2.3749512e-5,"MEAN_MOTION_DOT":9.0e-7,"MEAN_MOTION_DDOT":0},{"OBJECT_NAME":"IRIDIUM 33 DEB","OBJECT_ID":"1997-051QE","EPOCH":"2026-03-07T09:35:18.798432","MEAN_MOTION":15.07266806,"ECCENTRICITY":0.0013423,"INCLINATION":86.3519,"RA_OF_ASC_NODE":312.8742,"ARG_OF_PERICENTER":171.2899,"MEAN_ANOMALY":188.8573,"EPHEMERIS_TYPE":0,"CLASSIFICATION_TYPE":"U","NORAD_CAT_ID":35484,"ELEMENT_SET_NO":999,"REV_AT_EPOCH":63287,"BSTAR":0.0040001,"MEAN_MOTION_DOT":0.00060878,"MEAN_MOTION_DDOT":0}]
